[{"OBJECT_NAME":"STARLINK-30433","OBJECT_ID":"2023-144Q","EPOCH":"2026-03-08T23:31:32.787840","MEAN_MOTION":15.2675191,"ECCENTRICITY":0.00024097,"INCLINATION":43.0017,"RA_OF_ASC_NODE":288.8031,"ARG_OF_PERICENTER":266.9439,"MEAN_ANOMALY":93.1137,"EPHEMERIS_TYPE":0,"CLASSIFICATION_TYPE":"U","NORAD_CAT_ID":57878,"ELEMENT_SET_NO":999,"REV_AT_EPOCH":13753,"BSTAR":-3.5814757e-5,"MEAN_MOTION_DOT":-1.221e-5,"MEAN_MOTION_DDOT":0},{"OBJECT_NAME":"TIANMU-1 17","OBJECT_ID":"2024-004C","EPOCH":"2026-03-09T22:46:08.436864","MEAN_MOTION":15.2591023,"ECCENTRICITY":0.00044458,"INCLINATION":97.4649,"RA_OF_ASC_NODE":254.963,"ARG_OF_PERICENTER":359.1343,"MEAN_ANOMALY":0.9887,"EPHEMERIS_TYPE":0,"CLASSIFICATION_TYPE":"U","NORAD_CAT_ID":58702,"ELEMENT_SET_NO":999,"REV_AT_EPOCH":12063,"BSTAR":0.00031387278,"MEAN_MOTION_DOT":7.979e-5,"MEAN_MOTION_DDOT":0}]
